OBJECT_NAME,OBJECT_ID,EPOCH,MEAN_MOTION,ECCENTRICITY,INCLINATION,RA_OF_ASC_NODE,ARG_OF_PERICENTER,MEAN_ANOMALY,EPHEMERIS_TYPE,CLASSIFICATION_TYPE,NORAD_CAT_ID,ELEMENT_SET_NO,REV_AT_EPOCH,BSTAR,MEAN_MOTION_DOT,MEAN_MOTION_DDOT
QB50P1,2014-033R,2026-05-17T18:17:31.729056,15.17749645,.00078575,98.0972,146.7868,341.5889,18.5058,0,U,40025,999,64841,.29289335E-3,.5841E-4,0
DTUSAT-2,2014-033W,2026-05-17T17:16:28.874496,15.14587078,.0007385,98.0864,133.5244,353.0011,7.1115,0,U,40030,999,64807,.26697883E-3,.4856E-4,0
QB50P2,2014-033Y,2026-05-17T18:47:27.137472,15.14735983,.00056718,98.0752,132.7822,281.8283,78.2311,0,U,40032,999,64806,.24954057E-3,.4552E-4,0
PERSEUS-M1,2014-033AF,2026-05-17T09:26:51.823104,14.95520624,.00127604,97.9634,81.0260,45.6950,314.5314,0,U,40039,999,64603,.13739677E-3,.1464E-4,0
POLYITAN-1,2014-033AJ,2026-05-18T00:29:25.960704,15.32137260,.0005638,98.0958,161.4533,243.4651,116.6011,0,U,40042,999,64897,.40156E-3,.12383E-3,0
TIGRISAT,2014-033AK,2026-05-18T03:11:23.648640,14.85021474,.0049709,97.7797,288.8430,171.6860,188.5190,0,U,40043,999,64116,.16909E-3,.1419E-4,0
CANX-4,2014-034C,2026-05-18T03:48:42.586272,14.81203490,.0014075,98.3160,12.3648,105.9354,254.3410,0,U,40055,999,64008,.79831E-4,.565E-5,0
CANX-5,2014-034D,2026-05-18T02:09:40.600800,14.81220629,.0014071,98.3163,12.3353,106.3261,253.9499,0,U,40056,999,63088,.82172E-4,.583E-5,0
GONETS-M 10,2014-036C,2026-05-18T04:58:36.939936,12.42944647,.0021385,82.5098,326.3020,205.4686,154.5342,0,U,40063,999,53852,-.22179E-3,-.21E-6,0
METEOR-M 2,2014-037A,2026-05-18T05:30:48.811104,14.21451948,.0006785,98.5097,115.0325,116.9349,243.2523,0,U,40069,999,61506,-.45607E-4,-.142E-5,0
DX1,2014-037C,2026-05-18T03:22:15.464928,14.89880839,.0007761,98.3852,98.0253,21.3466,338.8072,0,U,40071,999,64163,.50879E-4,.426E-5,0
UKUBE-1,2014-037F,2026-05-18T05:09:25.375392,15.13024960,.0000347,98.4239,138.3519,131.3462,228.7797,0,U,40074,999,64402,.31072E-3,.5412E-4,0
GAOFEN-2,2014-049A,2026-05-18T04:13:24.525984,14.80863118,.0006781,98.0126,202.4093,342.1343,17.9629,0,U,40118,999,63479,-.51683E-5,-.93E-6,0
BRITE-PL2 (HEWELIUSZ),2014-049B,2026-05-18T02:39:43.627968,14.94468090,.0013562,97.9064,249.8874,204.1268,155.9318,0,U,40119,999,63695,.12742E-3,.1317E-4,0
CBERS 4,2014-079A,2026-05-18T04:54:44.828064,14.35500001,.0002086,98.3551,195.9733,98.8782,261.2640,0,U,40336,999,59965,.30544E-4,.46E-6,0
SMAP,2015-003A,2026-05-18T04:47:00.184416,14.63409874,.0001249,98.1284,145.7186,70.8693,289.2645,0,U,40376,999,60323,.54575E-4,.235E-5,0
GONETS-M 11,2015-020A,2026-05-18T03:26:59.478144,12.42875757,.0017399,82.4891,49.7099,67.8732,292.4192,0,U,40552,999,50500,.20722E-3,.39E-6,0
GONETS-M 12,2015-020B,2026-05-18T04:45:13.572864,12.42890150,.0016353,82.4924,50.7920,53.5397,306.7187,0,U,40553,999,50500,.32697E-3,.55E-6,0
GONETS-M 13,2015-020C,2026-05-18T04:06:18.586944,12.42868949,.0014825,82.4887,49.4328,39.7234,320.4928,0,U,40554,999,50497,.29024E-3,.5E-6,0
DMC3-FM1,2015-032A,2026-05-18T04:01:32.652192,14.85700190,.0006252,97.6500,4.5149,139.2688,220.8996,0,U,40715,999,58545,.39138E-4,.288E-5,0
DMC3-FM2,2015-032B,2026-05-18T04:33:26.993664,14.85707643,.0006717,97.6555,6.0894,145.0323,215.1335,0,U,40716,999,58545,.11924E-3,.983E-5,0
DMC3-FM3,2015-032C,2026-05-18T03:29:45.652128,14.85698853,.0005884,97.6609,7.7806,142.6045,217.5581,0,U,40717,999,58545,.11052E-3,.907E-5,0
CARBONITE 1 (CBNT-1),2015-032D,2026-05-18T04:02:13.801056,14.83484398,.0015448,97.6492,317.4964,37.9117,322.3182,0,U,40718,999,58489,.77681E-4,.589E-5,0
LILACSAT-2,2015-049K,2026-05-18T03:23:14.565120,15.50382833,.000704,97.4676,173.8596,20.3073,339.8457,0,U,40908,999,59109,.22745E-3,.12837E-3,0
COSMOS 2507 (RODNIK-S 13),2015-050A,2026-05-18T04:59:13.867296,12.42925509,.0011127,82.4897,98.3341,57.5605,302.6549,0,U,40920,999,48313,-.81848E-3,-.103E-5,0
COSMOS 2508 (RODNIK-S 14),2015-050B,2026-05-18T03:54:01.198368,12.42912734,.0015509,82.4850,96.8786,87.7953,272.4902,0,U,40921,999,48311,-.71217E-3,-.89E-6,0
