QB50P1                  
1 40025U 14033R   26137.76217279  .00005841  00000+0  29289-3 0  9992
2 40025  98.0972 146.7868 0007857 341.5889  18.5058 15.17749645648412
DTUSAT-2                
1 40030U 14033W   26137.71977864  .00004856  00000+0  26698-3 0  9992
2 40030  98.0864 133.5244 0007385 353.0011   7.1115 15.14587078648078
QB50P2                  
1 40032U 14033Y   26137.78295298  .00004552  00000+0  24954-3 0  9991
2 40032  98.0752 132.7822 0005671 281.8283  78.2311 15.14735983648060
PERSEUS-M1              
1 40039U 14033AF  26137.39365536  .00001464  00000+0  13740-3 0  9998
2 40039  97.9634  81.0260 0012760  45.6950 314.5314 14.95520624646036
POLYITAN-1              
1 40042U 14033AJ  26138.02043936  .00012383  00000+0  40156-3 0  9993
2 40042  98.0958 161.4533 0005638 243.4651 116.6011 15.32137260648971
TIGRISAT                
1 40043U 14033AK  26138.13291260  .00001419  00000+0  16909-3 0  9998
2 40043  97.7797 288.8430 0049709 171.6860 188.5190 14.85021474641166
CANX-4                  
1 40055U 14034C   26138.15882623  .00000565  00000+0  79831-4 0  9998
2 40055  98.3160  12.3648 0014075 105.9354 254.3410 14.81203490640080
CANX-5                  
1 40056U 14034D   26138.09005325  .00000583  00000+0  82172-4 0  9990
2 40056  98.3163  12.3353 0014071 106.3261 253.9499 14.81220629630887
GONETS-M 10             
1 40063U 14036C   26138.20737199 -.00000021  00000+0 -22179-3 0  9993
2 40063  82.5098 326.3020 0021385 205.4686 154.5342 12.42944647538523
METEOR-M 2              
1 40069U 14037A   26138.22973161 -.00000142  00000+0 -45607-4 0  9999
2 40069  98.5097 115.0325 0006785 116.9349 243.2523 14.21451948615063
DX1                     
1 40071U 14037C   26138.14045677  .00000426  00000+0  50879-4 0  9995
2 40071  98.3852  98.0253 0007761  21.3466 338.8072 14.89880839641638
UKUBE-1                 
1 40074U 14037F   26138.21487703  .00005412  00000+0  31072-3 0  9999
2 40074  98.4239 138.3519 0000347 131.3462 228.7797 15.13024960644025
GAOFEN-2                
1 40118U 14049A   26138.17597831 -.00000093  00000+0 -51683-5 0  9994
2 40118  98.0126 202.4093 0006781 342.1343  17.9629 14.80863118634797
BRITE-PL2 (HEWELIUSZ)   
1 40119U 14049B   26138.11092162  .00001317  00000+0  12742-3 0  9995
2 40119  97.9064 249.8874 0013562 204.1268 155.9318 14.94468090636950
CBERS 4                 
1 40336U 14079A   26138.20468551  .00000046  00000+0  30544-4 0  9997
2 40336  98.3551 195.9733 0002086  98.8782 261.2640 14.35500001599658
SMAP                    
1 40376U 15003A   26138.19930769  .00000235  00000+0  54575-4 0  9992
2 40376  98.1284 145.7186 0001249  70.8693 289.2645 14.63409874603231
GONETS-M 11             
1 40552U 15020A   26138.14374396  .00000039  00000+0  20722-3 0  9998
2 40552  82.4891  49.7099 0017399  67.8732 292.4192 12.42875757505007
GONETS-M 12             
1 40553U 15020B   26138.19807376  .00000055  00000+0  32697-3 0  9995
2 40553  82.4924  50.7920 0016353  53.5397 306.7187 12.42890150505005
GONETS-M 13             
1 40554U 15020C   26138.17104846  .00000050  00000+0  29024-3 0  9991
2 40554  82.4887  49.4328 0014825  39.7234 320.4928 12.42868949504971
DMC3-FM1                
1 40715U 15032A   26138.16773903  .00000288  00000+0  39138-4 0  9999
2 40715  97.6500   4.5149 0006252 139.2688 220.8996 14.85700190585459
DMC3-FM2                
1 40716U 15032B   26138.18989576  .00000983  00000+0  11924-3 0  9991
2 40716  97.6555   6.0894 0006717 145.0323 215.1335 14.85707643585455
DMC3-FM3                
1 40717U 15032C   26138.14566727  .00000907  00000+0  11052-3 0  9995
2 40717  97.6609   7.7806 0005884 142.6045 217.5581 14.85698853585456
CARBONITE 1 (CBNT-1)    
1 40718U 15032D   26138.16821529  .00000589  00000+0  77681-4 0  9999
2 40718  97.6492 317.4964 0015448  37.9117 322.3182 14.83484398584890
LILACSAT-2              
1 40908U 15049K   26138.14114080  .00012837  00000+0  22745-3 0  9992
2 40908  97.4676 173.8596 0007040  20.3073 339.8457 15.50382833591098
COSMOS 2507 (RODNIK-S *)
1 40920U 15050A   26138.20779939 -.00000103  00000+0 -81848-3 0  9999
2 40920  82.4897  98.3341 0011127  57.5605 302.6549 12.42925509483130
COSMOS 2508 (RODNIK-S *)
1 40921U 15050B   26138.16251387 -.00000089  00000+0 -71217-3 0  9999
2 40921  82.4850  96.8786 0015509  87.7953 272.4902 12.42912734483116
